SPACEMOBILE-004         
1 61049U 24163E   26199.31610674  .00010492  00000+0  48447-3 0  9996
2 61049  52.9719 165.7693 0005789 237.6341 122.4093 15.20746753102506
CZ-8A R/B               
1 66004U 25231K   26200.54376368 -.00000089  00000+0  26997-4 0  9995
2 66004  50.0033 261.6580 0116547 337.9306  21.6615 14.30162871 39570
SZ-21 MODULE            
1 66515U 25246C   26199.92739433  .00033789  00000+0  18475-3 0  9996
2 66515  41.4721 109.2360 0008998 244.5727 115.4187 15.79071275 38754
SPACEMOBILE-006         
1 67232U 25309A   26200.35692778  .00001577  00000+0  90416-4 0  9999
2 67232  52.9938 184.2683 0009693 229.6754 130.3394 15.18667029 31486
SPACEMOBILE-008         
1 69589U 26139A   26200.05069668  .00000377  00000+0  38196-4 0  9995
2 69589  52.9951 117.9031 0005215  65.6250 294.5285 15.12805551  4809
SPACEMOBILE-009         
1 69590U 26139B   26200.18507051  .00000347  00000+0  36597-4 0  9994
2 69590  52.9942 117.3113 0005480  61.8560 298.2984 15.12699108  4820
SPACEMOBILE-010         
1 69591U 26139C   26200.05646155  .00001068  00000+0  77627-4 0  9990
2 69591  52.9947 117.9362 0005447  54.3498 305.7999 15.12537961  4815
